ION SCV-017             
1 63230U 25052W   26068.71648816  .00006457  00000+0  24539-3 0  9998
2 63230  97.4016 324.7516 0023746  44.9875 315.3282 15.26881798 54851
STARLINK-33862          
1 63709U 25087N   26068.71330931  .00030746  00000+0  10458-2 0  9995
2 63709  53.1574 219.4155 0000844  97.5132 262.5964 15.30204885 49207
