[{"OBJECT_NAME":"ION SCV-017","OBJECT_ID":"2025-052W","EPOCH":"2026-03-09T17:11:44.577024","MEAN_MOTION":15.26881798,"ECCENTRICITY":0.0023746,"INCLINATION":97.4016,"RA_OF_ASC_NODE":324.7516,"ARG_OF_PERICENTER":44.9875,"MEAN_ANOMALY":315.3282,"EPHEMERIS_TYPE":0,"CLASSIFICATION_TYPE":"U","NORAD_CAT_ID":63230,"ELEMENT_SET_NO":999,"REV_AT_EPOCH":5485,"BSTAR":0.00024539061,"MEAN_MOTION_DOT":6.457e-5,"MEAN_MOTION_DDOT":0},{"OBJECT_NAME":"STARLINK-33862","OBJECT_ID":"2025-087N","EPOCH":"2026-03-09T17:07:09.925248","MEAN_MOTION":15.30204885,"ECCENTRICITY":8.441e-5,"INCLINATION":53.1574,"RA_OF_ASC_NODE":219.4155,"ARG_OF_PERICENTER":97.5132,"MEAN_ANOMALY":262.5964,"EPHEMERIS_TYPE":0,"CLASSIFICATION_TYPE":"U","NORAD_CAT_ID":63709,"ELEMENT_SET_NO":999,"REV_AT_EPOCH":4920,"BSTAR":0.0010457536,"MEAN_MOTION_DOT":0.00030746,"MEAN_MOTION_DDOT":0}]
